CCSDS_OMM_VERS = 2.0
CREATION_DATE  = 
ORIGINATOR     = 

OBJECT_NAME    = H-2A R/B
OBJECT_ID      = 2006-002B
CENTER_NAME    = EARTH
REF_FRAME      = TEME
TIME_SYSTEM    = UTC
MEAN_ELEMENT_THEORY = SGP/SGP4

EPOCH          = 2026-03-12T09:07:58.249056
MEAN_MOTION    = 15.16485542
ECCENTRICITY   = .0051937
INCLINATION    = 98.2411
RA_OF_ASC_NODE = 218.6356
ARG_OF_PERICENTER = 231.7636
MEAN_ANOMALY   = 127.8914

EPHEMERIS_TYPE = 0
CLASSIFICATION_TYPE = U
NORAD_CAT_ID   = 28932
ELEMENT_SET_NO = 999
REV_AT_EPOCH   = 9484
BSTAR          = .53302E-3
MEAN_MOTION_DOT = .10669E-3
MEAN_MOTION_DDOT = 0

CCSDS_OMM_VERS = 2.0
CREATION_DATE  = 
ORIGINATOR     = 

OBJECT_NAME    = RESURS-DK 1
OBJECT_ID      = 2006-021A
CENTER_NAME    = EARTH
REF_FRAME      = TEME
TIME_SYSTEM    = UTC
MEAN_ELEMENT_THEORY = SGP/SGP4

EPOCH          = 2026-03-12T13:51:05.563008
MEAN_MOTION    = 15.12767677
ECCENTRICITY   = .00016
INCLINATION    = 69.9325
RA_OF_ASC_NODE = 229.5530
ARG_OF_PERICENTER = 160.2150
MEAN_ANOMALY   = 199.9078

EPHEMERIS_TYPE = 0
CLASSIFICATION_TYPE = U
NORAD_CAT_ID   = 29228
ELEMENT_SET_NO = 999
REV_AT_EPOCH   = 8796
BSTAR          = .22547E-3
MEAN_MOTION_DOT = .3858E-4
MEAN_MOTION_DDOT = 0

CCSDS_OMM_VERS = 2.0
CREATION_DATE  = 
ORIGINATOR     = 

OBJECT_NAME    = CZ-4B R/B
OBJECT_ID      = 2006-046C
CENTER_NAME    = EARTH
REF_FRAME      = TEME
TIME_SYSTEM    = UTC
MEAN_ELEMENT_THEORY = SGP/SGP4

EPOCH          = 2026-03-12T15:26:46.897440
MEAN_MOTION    = 15.16938962
ECCENTRICITY   = .0031689
INCLINATION    = 97.5594
RA_OF_ASC_NODE = 116.5449
ARG_OF_PERICENTER = 256.5740
MEAN_ANOMALY   = 103.1960

EPHEMERIS_TYPE = 0
CLASSIFICATION_TYPE = U
NORAD_CAT_ID   = 29507
ELEMENT_SET_NO = 999
REV_AT_EPOCH   = 6049
BSTAR          = .25144E-3
MEAN_MOTION_DOT = .4952E-4
MEAN_MOTION_DDOT = 0

CCSDS_OMM_VERS = 2.0
CREATION_DATE  = 
ORIGINATOR     = 

OBJECT_NAME    = CZ-2C R/B
OBJECT_ID      = 2007-010B
CENTER_NAME    = EARTH
REF_FRAME      = TEME
TIME_SYSTEM    = UTC
MEAN_ELEMENT_THEORY = SGP/SGP4

EPOCH          = 2026-03-12T07:58:52.222368
MEAN_MOTION    = 14.20247371
ECCENTRICITY   = .0057872
INCLINATION    = 98.3979
RA_OF_ASC_NODE = 184.4786
ARG_OF_PERICENTER = 286.7615
MEAN_ANOMALY   = 72.7218

EPHEMERIS_TYPE = 0
CLASSIFICATION_TYPE = U
NORAD_CAT_ID   = 31114
ELEMENT_SET_NO = 999
REV_AT_EPOCH   = 98009
BSTAR          = .97563E-4
MEAN_MOTION_DOT = .17E-5
MEAN_MOTION_DDOT = 0

CCSDS_OMM_VERS = 2.0
CREATION_DATE  = 
ORIGINATOR     = 

OBJECT_NAME    = COSMO-SKYMED 1
OBJECT_ID      = 2007-023A
CENTER_NAME    = EARTH
REF_FRAME      = TEME
TIME_SYSTEM    = UTC
MEAN_ELEMENT_THEORY = SGP/SGP4

EPOCH          = 2026-03-12T16:09:29.179296
MEAN_MOTION    = 14.96562375
ECCENTRICITY   = .0001504
INCLINATION    = 97.8880
RA_OF_ASC_NODE = 262.7289
ARG_OF_PERICENTER = 97.5540
MEAN_ANOMALY   = 262.5852

EPHEMERIS_TYPE = 0
CLASSIFICATION_TYPE = U
NORAD_CAT_ID   = 31598
ELEMENT_SET_NO = 999
REV_AT_EPOCH   = 1535
BSTAR          = .39595E-3
MEAN_MOTION_DOT = .4446E-4
MEAN_MOTION_DDOT = 0

CCSDS_OMM_VERS = 2.0
CREATION_DATE  = 
ORIGINATOR     = 

OBJECT_NAME    = COSMOS 2428
OBJECT_ID      = 2007-029A
CENTER_NAME    = EARTH
REF_FRAME      = TEME
TIME_SYSTEM    = UTC
MEAN_ELEMENT_THEORY = SGP/SGP4

EPOCH          = 2026-03-12T17:17:30.970176
MEAN_MOTION    = 14.12946755
ECCENTRICITY   = .000924
INCLINATION    = 70.9436
RA_OF_ASC_NODE = 196.9817
ARG_OF_PERICENTER = 274.0492
MEAN_ANOMALY   = 85.9573

EPHEMERIS_TYPE = 0
CLASSIFICATION_TYPE = U
NORAD_CAT_ID   = 31792
ELEMENT_SET_NO = 999
REV_AT_EPOCH   = 96452
BSTAR          = .43571E-4
MEAN_MOTION_DOT = .33E-6
MEAN_MOTION_DDOT = 0

CCSDS_OMM_VERS = 2.0
CREATION_DATE  = 
ORIGINATOR     = 

OBJECT_NAME    = SL-16 R/B
OBJECT_ID      = 2007-029B
CENTER_NAME    = EARTH
REF_FRAME      = TEME
TIME_SYSTEM    = UTC
MEAN_ELEMENT_THEORY = SGP/SGP4

EPOCH          = 2026-03-12T16:41:19.065120
MEAN_MOTION    = 14.14834317
ECCENTRICITY   = .0002274
INCLINATION    = 70.9758
RA_OF_ASC_NODE = 166.0673
ARG_OF_PERICENTER = 276.0061
MEAN_ANOMALY   = 251.2586

EPHEMERIS_TYPE = 0
CLASSIFICATION_TYPE = U
NORAD_CAT_ID   = 31793
ELEMENT_SET_NO = 999
REV_AT_EPOCH   = 96579
BSTAR          = .11276E-3
MEAN_MOTION_DOT = .17E-5
MEAN_MOTION_DDOT = 0

CCSDS_OMM_VERS = 2.0
CREATION_DATE  = 
ORIGINATOR     = 

OBJECT_NAME    = KORONAS-FOTON
OBJECT_ID      = 2009-003A
CENTER_NAME    = EARTH
REF_FRAME      = TEME
TIME_SYSTEM    = UTC
MEAN_ELEMENT_THEORY = SGP/SGP4

EPOCH          = 2026-03-12T14:48:36.423072
MEAN_MOTION    = 15.43384574
ECCENTRICITY   = .001145
INCLINATION    = 82.4279
RA_OF_ASC_NODE = 272.8339
ARG_OF_PERICENTER = 140.0753
MEAN_ANOMALY   = 220.1339

EPHEMERIS_TYPE = 0
CLASSIFICATION_TYPE = U
NORAD_CAT_ID   = 33504
ELEMENT_SET_NO = 999
REV_AT_EPOCH   = 94619
BSTAR          = .23169E-3
MEAN_MOTION_DOT = .10403E-3
MEAN_MOTION_DDOT = 0

CCSDS_OMM_VERS = 2.0
CREATION_DATE  = 
ORIGINATOR     = 

OBJECT_NAME    = CZ-2C R/B
OBJECT_ID      = 2011-030B
CENTER_NAME    = EARTH
REF_FRAME      = TEME
TIME_SYSTEM    = UTC
MEAN_ELEMENT_THEORY = SGP/SGP4

EPOCH          = 2026-03-12T11:00:52.236288
MEAN_MOTION    = 14.81235350
ECCENTRICITY   = .0052149
INCLINATION    = 97.8543
RA_OF_ASC_NODE = 28.6665
ARG_OF_PERICENTER = 343.0269
MEAN_ANOMALY   = 130.3441

EPHEMERIS_TYPE = 0
CLASSIFICATION_TYPE = U
NORAD_CAT_ID   = 37731
ELEMENT_SET_NO = 999
REV_AT_EPOCH   = 79050
BSTAR          = .26927E-3
MEAN_MOTION_DOT = .2092E-4
MEAN_MOTION_DDOT = 0

CCSDS_OMM_VERS = 2.0
CREATION_DATE  = 
ORIGINATOR     = 

OBJECT_NAME    = H-2A R/B
OBJECT_ID      = 2012-025E
CENTER_NAME    = EARTH
REF_FRAME      = TEME
TIME_SYSTEM    = UTC
MEAN_ELEMENT_THEORY = SGP/SGP4

EPOCH          = 2026-03-12T11:20:14.221248
MEAN_MOTION    = 14.95194845
ECCENTRICITY   = .0043186
INCLINATION    = 98.4738
RA_OF_ASC_NODE = 38.7417
ARG_OF_PERICENTER = 305.0697
MEAN_ANOMALY   = 54.6474

EPHEMERIS_TYPE = 0
CLASSIFICATION_TYPE = U
NORAD_CAT_ID   = 38341
ELEMENT_SET_NO = 999
REV_AT_EPOCH   = 74863
BSTAR          = .33398E-3
MEAN_MOTION_DOT = .3668E-4
MEAN_MOTION_DDOT = 0

CCSDS_OMM_VERS = 2.0
CREATION_DATE  = 
ORIGINATOR     = 

OBJECT_NAME    = SHIJIAN-16 (SJ-16)
OBJECT_ID      = 2013-057A
CENTER_NAME    = EARTH
REF_FRAME      = TEME
TIME_SYSTEM    = UTC
MEAN_ELEMENT_THEORY = SGP/SGP4

EPOCH          = 2026-03-12T17:06:26.921376
MEAN_MOTION    = 14.92363415
ECCENTRICITY   = .0015429
INCLINATION    = 74.9729
RA_OF_ASC_NODE = 179.3655
ARG_OF_PERICENTER = 104.8533
MEAN_ANOMALY   = 255.4366

EPHEMERIS_TYPE = 0
CLASSIFICATION_TYPE = U
NORAD_CAT_ID   = 39358
ELEMENT_SET_NO = 999
REV_AT_EPOCH   = 67195
BSTAR          = .34281E-3
MEAN_MOTION_DOT = .3487E-4
MEAN_MOTION_DDOT = 0

CCSDS_OMM_VERS = 2.0
CREATION_DATE  = 
ORIGINATOR     = 

OBJECT_NAME    = SL-4 R/B
OBJECT_ID      = 2014-021B
CENTER_NAME    = EARTH
REF_FRAME      = TEME
TIME_SYSTEM    = UTC
MEAN_ELEMENT_THEORY = SGP/SGP4

EPOCH          = 2026-03-11T23:11:23.282880
MEAN_MOTION    = 15.39266038
ECCENTRICITY   = .0097301
INCLINATION    = 51.6083
RA_OF_ASC_NODE = 326.1718
ARG_OF_PERICENTER = 111.2955
MEAN_ANOMALY   = 249.8451

EPHEMERIS_TYPE = 0
CLASSIFICATION_TYPE = U
NORAD_CAT_ID   = 39679
ELEMENT_SET_NO = 999
REV_AT_EPOCH   = 65662
BSTAR          = .33848E-3
MEAN_MOTION_DOT = .15383E-3
MEAN_MOTION_DDOT = 0

