H-2A R/B                
1 28932U 06002B   26071.38053529  .00010669  00000+0  53302-3 0  9990
2 28932  98.2411 218.6356 0051937 231.7636 127.8914 15.16485542 94843
RESURS-DK 1             
1 29228U 06021A   26071.57714772  .00003858  00000+0  22547-3 0  9994
2 29228  69.9325 229.5530 0001600 160.2150 199.9078 15.12767677 87969
CZ-4B R/B               
1 29507U 06046C   26071.64359835  .00004952  00000+0  25144-3 0  9996
2 29507  97.5594 116.5449 0031689 256.5740 103.1960 15.16938962 60499
CZ-2C R/B               
1 31114U 07010B   26071.33254887  .00000170  00000+0  97563-4 0  9995
2 31114  98.3979 184.4786 0057872 286.7615  72.7218 14.20247371980093
COSMO-SKYMED 1          
1 31598U 07023A   26071.67325439  .00004446  00000+0  39595-3 0  9994
2 31598  97.8880 262.7289 0001504  97.5540 262.5852 14.96562375 15356
COSMOS 2428             
1 31792U 07029A   26071.72049734  .00000033  00000+0  43571-4 0  9991
2 31792  70.9436 196.9817 0009240 274.0492  85.9573 14.12946755964524
SL-16 R/B               
1 31793U 07029B   26071.69535955  .00000170  00000+0  11276-3 0  9991
2 31793  70.9758 166.0673 0002274 276.0061 251.2586 14.14834317965798
KORONAS-FOTON           
1 33504U 09003A   26071.61708823  .00010403  00000+0  23169-3 0  9999
2 33504  82.4279 272.8339 0011450 140.0753 220.1339 15.43384574946197
CZ-2C R/B               
1 37731U 11030B   26071.45893792  .00002092  00000+0  26927-3 0  9990
2 37731  97.8543  28.6665 0052149 343.0269 130.3441 14.81235350790509
H-2A R/B                
1 38341U 12025E   26071.47238682  .00003668  00000+0  33398-3 0  9996
2 38341  98.4738  38.7417 0043186 305.0697  54.6474 14.95194845748630
SHIJIAN-16 (SJ-16)      
1 39358U 13057A   26071.71281159  .00003487  00000+0  34281-3 0  9996
2 39358  74.9729 179.3655 0015429 104.8533 255.4366 14.92363415671956
SL-4 R/B                
1 39679U 14021B   26070.96624170  .00015383  00000+0  33848-3 0  9990
2 39679  51.6083 326.1718 0097301 111.2955 249.8451 15.39266038656622
